[{"OBJECT_NAME":"ONEWEB-0255","OBJECT_ID":"2021-060G","EPOCH":"2026-03-09T22:39:35.067168","MEAN_MOTION":13.1659421,"ECCENTRICITY":0.00017919,"INCLINATION":87.9005,"RA_OF_ASC_NODE":248.5194,"ARG_OF_PERICENTER":99.809,"MEAN_ANOMALY":260.3243,"EPHEMERIS_TYPE":0,"CLASSIFICATION_TYPE":"U","NORAD_CAT_ID":48973,"ELEMENT_SET_NO":999,"REV_AT_EPOCH":22660,"BSTAR":0.0002111748,"MEAN_MOTION_DOT":9.4e-7,"MEAN_MOTION_DDOT":0},{"OBJECT_NAME":"COSMOS 2251 DEB","OBJECT_ID":"1993-036TR","EPOCH":"2026-03-09T17:08:42.195264","MEAN_MOTION":13.70649647,"ECCENTRICITY":0.03285514,"INCLINATION":74.085,"RA_OF_ASC_NODE":315.0753,"ARG_OF_PERICENTER":65.7809,"MEAN_ANOMALY":297.7272,"EPHEMERIS_TYPE":0,"CLASSIFICATION_TYPE":"U","NORAD_CAT_ID":34472,"ELEMENT_SET_NO":999,"REV_AT_EPOCH":84918,"BSTAR":0.0015683222,"MEAN_MOTION_DOT":2.021e-5,"MEAN_MOTION_DDOT":0}]
